[{"OBJECT_NAME":"A-SEANSAT-PG1","OBJECT_ID":"2023-091AH","EPOCH":"2026-03-09T22:32:06.495648","MEAN_MOTION":15.33422293,"ECCENTRICITY":0.00088895,"INCLINATION":97.5184,"RA_OF_ASC_NODE":136.6191,"ARG_OF_PERICENTER":78.3219,"MEAN_ANOMALY":281.902,"EPHEMERIS_TYPE":0,"CLASSIFICATION_TYPE":"U","NORAD_CAT_ID":57197,"ELEMENT_SET_NO":999,"REV_AT_EPOCH":14948,"BSTAR":0.0007038551,"MEAN_MOTION_DOT":0.00022724,"MEAN_MOTION_DDOT":0},{"OBJECT_NAME":"STARLINK-35613","OBJECT_ID":"2025-236M","EPOCH":"2026-03-09T11:21:32.462496","MEAN_MOTION":15.30202761,"ECCENTRICITY":0.00012116,"INCLINATION":53.1589,"RA_OF_ASC_NODE":104.724,"ARG_OF_PERICENTER":91.141,"MEAN_ANOMALY":268.9729,"EPHEMERIS_TYPE":0,"CLASSIFICATION_TYPE":"U","NORAD_CAT_ID":66097,"ELEMENT_SET_NO":999,"REV_AT_EPOCH":2291,"BSTAR":0.0008208773,"MEAN_MOTION_DOT":0.00024034,"MEAN_MOTION_DDOT":0}]
